KUIPER-00290            
1 68592U 26072V   26114.53671154  .00016412  00000+0  46719-3 0  9996
2 68592  51.8647  76.5807 0010687 187.1982 172.8852 15.36200356  3124
KUIPER-00293            
1 68593U 26072W   26114.47687559  .00017862  00000+0  51519-3 0  9990
2 68593  51.8650  76.9283 0011057 192.3495 167.7222 15.35720048  3117
KUIPER-00294            
1 68594U 26072X   26114.72886714  .00017266  00000+0  48717-3 0  9997
2 68594  51.8684  75.6242 0009370 188.0433 172.0405 15.36449868  3150
KUIPER-00296            
1 68595U 26072Y   26114.52873699  .00020092  00000+0  55821-3 0  9999
2 68595  51.8701  76.5374 0008313 180.6054 179.4924 15.36833013  3123
KUIPER-00297            
1 68596U 26072Z   26114.47043737  .00003237  00000+0  10101-3 0  9990
2 68596  51.8635  76.8846 0009523 185.9949 174.0925 15.36226283  3118
KUIPER-00300            
1 68597U 26072AA  26114.52618708  .00019365  00000+0  53504-3 0  9996
2 68597  51.8677  76.5182 0007993 181.6062 178.4900 15.37032038  3129
KUIPER-00301            
1 68598U 26072AB  26114.53040656  .00020138  00000+0  56178-3 0  9999
2 68598  51.8654  76.5422 0008486 184.1093 175.9825 15.36702442  3122
KUIPER-00304            
1 68599U 26072AC  26114.53158821  .00017547  00000+0  49243-3 0  9999
2 68599  51.8671  76.5509 0009048 183.3607 176.7320 15.36610685  3121
KUIPER-00317            
1 68600U 26072AD  26114.52774298  .00020470  00000+0  56804-3 0  9993
2 68600  51.8688  76.5296 0008577 176.4866 183.6182 15.36854983  3125
KUIPER-00320            
1 68601U 26072AE  26114.53834165  .00020765  00000+0  59092-3 0  9994
2 68601  51.8612  76.5852 0010721 189.1409 170.9383 15.36039429  3121
STARLINK-37135          
1 68602U 26073A   26114.49353887  .00180024  00000+0  11798-2 0  9993
2 68602  97.2852 312.4765 0001329  85.7133 274.4284 15.75243448  2766
STARLINK-37189          
1 68603U 26073B   26114.53007092 -.00535293  00000+0 -30509-2 0  9998
2 68603  97.2848 312.5791 0001216 359.1102   1.0163 15.80220571  2770
STARLINK-37130          
1 68604U 26073C   26114.73741294  .00132391  00000+0  87304-3 0  9996
2 68604  97.2853 312.7563 0001204  92.0408 268.0995 15.75236151  2802
STARLINK-37131          
1 68605U 26073D   26115.91668981  .00186734  00000+0  12307-2 0  9999
2 68605  97.2842 314.0341 0001260  86.3164 208.5795 15.75093831  4127
STARLINK-37253          
1 68606U 26073E   26114.52773316  .00217162  00000+0  11023-2 0  9999
2 68606  97.2840 312.5824 0001290  66.1145 294.0258 15.80899637  2770
STARLINK-37246          
1 68607U 26073F   26114.74341293  .00162314  00000+0  10663-2 0  9996
2 68607  97.2850 312.7482 0001122  79.5153 280.6239 15.75239707  2809
